[Satellite]
VERSION=1.1
NAME=NSIGHT-1
NICKNAME=NSIGHT-1
TLE1=1 42726U 98067MF  20116.07643009  .13690248  12613-4  18337-3 0  9995
TLE2=2 42726  51.6113 128.9553 0003404 226.2479 133.8270 16.49117643167130
STATUS=0
